[{"OBJECT_NAME":"STARLINK-2255","OBJECT_ID":"2021-041AW","EPOCH":"2026-03-09T12:30:12.748896","MEAN_MOTION":15.29339204,"ECCENTRICITY":0.00016461,"INCLINATION":53.1569,"RA_OF_ASC_NODE":140.3268,"ARG_OF_PERICENTER":57.6674,"MEAN_ANOMALY":302.4486,"EPHEMERIS_TYPE":0,"CLASSIFICATION_TYPE":"U","NORAD_CAT_ID":48597,"ELEMENT_SET_NO":999,"REV_AT_EPOCH":26633,"BSTAR":0.00043720996,"MEAN_MOTION_DOT":0.00012274,"MEAN_MOTION_DDOT":0},{"OBJECT_NAME":"VSP RF C1","OBJECT_ID":"2024-043AQ","EPOCH":"2026-03-09T21:56:05.358624","MEAN_MOTION":15.29409663,"ECCENTRICITY":0.00093965,"INCLINATION":97.5441,"RA_OF_ASC_NODE":205.1792,"ARG_OF_PERICENTER":219.6172,"MEAN_ANOMALY":140.4382,"EPHEMERIS_TYPE":0,"CLASSIFICATION_TYPE":"U","NORAD_CAT_ID":59136,"ELEMENT_SET_NO":999,"REV_AT_EPOCH":11190,"BSTAR":0.00026222052,"MEAN_MOTION_DOT":7.409e-5,"MEAN_MOTION_DDOT":0}]
